COMMENT,ORIGINATOR,NORAD_CAT_ID,OBJECT_NAME,OBJECT_TYPE,CLASSIFICATION_TYPE,INTLDES,EPOCH,EPOCH_MICROSECONDS,MEAN_MOTION,ECCENTRICITY,INCLINATION,RA_OF_ASC_NODE,ARG_OF_PERICENTER,MEAN_ANOMALY,EPHEMERIS_TYPE,ELEMENT_SET_NO,REV_AT_EPOCH,BSTAR,MEAN_MOTION_DOT,MEAN_MOTION_DDOT,FILE,TLE_LINE0,TLE_LINE1,TLE_LINE2,OBJECT_ID,OBJECT_NUMBER,SEMIMAJOR_AXIS,PERIOD,APOGEE,PERIGEE,DECAYED
GENERATED VIA SPACETRACK.ORG API,18 SPCS,44479,AMOS 17,PAYLOAD,U,19050A,2024-03-02 00:49:42,819168,1.00274559,0.00018,0.0161,122.1273,238.6567,188.9458,0,999,1678,0,0.0000012,0,4203826,0 AMOS 17,1 44479U 19050A   24062.03452337  .00000120  00000-0  00000+0 0  9996,2 44479   0.0161 122.1273 0001800 238.6567 188.9458  1.00274559 16780,2019-050A,44479,42163.954,1436.057,35793.409,35778.230,0
GENERATED VIA SPACETRACK.ORG API,18 SPCS,22787,UFO 2 (USA 95),PAYLOAD,U,93056A,2024-03-02 00:00:45,733248,1.00275928,0.0003641,11.6259,7.9151,346.1462,195.1034,0,999,11015,0,0.00000137,0,4204354,0 UFO 2 (USA 95),1 22787U 93056A   24062.00052932  .00000137  00000-0  00000-0 0  9995,2 22787  11.6259   7.9151 0003641 346.1462 195.1034  1.00275928110150,1993-056A,22787,42163.571,1436.038,35800.787,35770.084,0
GENERATED VIA SPACETRACK.ORG API,18 SPCS,29055,ASTRA 1KR,PAYLOAD,U,06012A,2024-03-01 23:43:42,522240,1.0027296,0.0002969,0.0842,279.8767,13.9431,241.5545,0,999,6535,0,0.00000131,0,4203653,0 ASTRA 1KR,1 29055U 06012A   24061.98868660  .00000131  00000-0  00000+0 0  9998,2 29055   0.0842 279.8767 0002969  13.9431 241.5545  1.00272960 65352,2006-012A,29055,42164.403,1436.080,35798.786,35773.749,0
GENERATED VIA SPACETRACK.ORG API,18 SPCS,29162,EUTE 113 WEST A(SATMEX 6,PAYLOAD,U,06020A,2024-03-01 22:13:18,477120,1.00274543,0.000313,0.2008,99.689,242.8691,38.0734,0,999,6507,0,-0.00000027,0,4203428,0 EUTE 113 WEST A(SATMEX 6,1 29162U 06020A   24061.92590830 -.00000027  00000-0  00000-0 0  9997,2 29162   0.2008  99.6890 0003130 242.8691  38.0734  1.00274543 65071,2006-020A,29162,42163.959,1436.057,35799.021,35772.626,0
GENERATED VIA SPACETRACK.ORG API,18 SPCS,8832,TITAN 3C TRANSTAGE DEB,DEBRIS,U,76023J,2024-03-01 21:29:42,648000,0.98259298,0.0137431,20.0977,53.2991,73.4786,101.5024,0,999,10937,0,-0.00000141,0,4203428,0 TITAN 3C TRANSTAGE DEB,1 08832U 76023J   24061.89563250 -.00000141  00000-0  00000-0 0  9997,2 08832  20.0977  53.2991 0137431  73.4786 101.5024  0.98259298109376,1976-023J,8832,42738.513,1465.510,36947.737,35773.018,0
GENERATED VIA SPACETRACK.ORG API,18 SPCS,42749,ECHOSTAR 21,PAYLOAD,U,17032A,2024-03-01 20:16:42,461760,1.00271057,0.0002378,2.7278,317.5557,18.0606,138.9192,0,999,2471,0,0.00000077,0,4203428,0 ECHOSTAR 21,1 42749U 17032A   24061.84493590  .00000077  00000-0  00000-0 0  9998,2 42749   2.7278 317.5557 0002378  18.0606 138.9192  1.00271057 24718,2017-032A,42749,42164.936,1436.107,35796.828,35776.774,0
GENERATED VIA SPACETRACK.ORG API,18 SPCS,44457,COSMOS 2539,PAYLOAD,U,19048A,2024-03-01 20:05:42,542880,1.00272409,0.0000293,0.015,124.7747,307.0884,41.6627,0,999,1683,0,0.00000092,0,4203428,0 COSMOS 2539,1 44457U 19048A   24061.83729795  .00000092  00000-0  00000-0 0  9990,2 44457   0.0150 124.7747 0000293 307.0884  41.6627  1.00272409 16837,2019-048A,44457,42164.557,1436.088,35787.657,35785.187,0
GENERATED VIA SPACETRACK.ORG API,18 SPCS,29055,ASTRA 1KR,PAYLOAD,U,06012A,2024-03-01 20:05:42,542880,1.00272915,0.0002982,0.0846,279.862,13.7416,187.1207,0,999,3732,0,0.00000131,0,4203428,0 ASTRA 1KR,1 29055U 06012A   24061.83729795  .00000131  00000-0  00000-0 0  9998,2 29055   0.0846 279.8620 0002982  13.7416 187.1207  1.00272915 37326,2006-012A,29055,42164.415,1436.081,35798.854,35773.707,0
GENERATED VIA SPACETRACK.ORG API,18 SPCS,33436,ASTRA 1M,PAYLOAD,U,08057A,2024-03-01 20:05:42,542880,1.00269449,0.0001245,0.0187,122.432,276.2322,82.0736,0,999,3734,0,0.0000013,0,4203428,0 ASTRA 1M,1 33436U 08057A   24061.83729795  .00000130  00000-0  00000-0 0  9996,2 33436   0.0187 122.4320 0001245 276.2322  82.0736  1.00269449 37345,2008-057A,33436,42165.387,1436.130,35792.501,35782.002,0
GENERATED VIA SPACETRACK.ORG API,18 SPCS,44066,S5 DEB,DEBRIS,U,19009E,2024-03-01 19:47:35,528064,0.98987944,0.0005905,4.4307,80.7905,196.0522,164.1785,0,999,1807,0,-0.00000214,0,4204354,0 S5 DEB,1 44066U 19009E   24061.82471676 -.00000214  00000-0  00000-0 0  9991,2 44066   4.4307  80.7905 0005905 196.0522 164.1785  0.98987944 18079,2019-009E,44066,42528.524,1454.723,36175.502,36125.275,0
GENERATED VIA SPACETRACK.ORG API,18 SPCS,41384,IRNSS 1F,PAYLOAD,U,16015A,2024-03-01 19:34:42,927168,1.00274972,0.0020389,3.3204,121.9513,190.1908,174.0657,0,999,2927,0,0.00000169,0,4203428,0 IRNSS 1F,1 41384U 16015A   24061.81577462  .00000169  00000-0  00000-0 0  9992,2 41384   3.3204 121.9513 0020389 190.1908 174.0657  1.00274972 29278,2016-015A,41384,42163.839,1436.051,35871.671,35699.736,0
GENERATED VIA SPACETRACK.ORG API,18 SPCS,43453,TITAN 3C TRANSTAGE DEB,DEBRIS,U,69013L,2024-03-01 19:31:36,579648,1.07400863,0.0664837,1.7462,233.0488,213.2372,141.7052,0,999,2304,0,-0.0000007,0,4204118,0 TITAN 3C TRANSTAGE DEB,1 43453U 69013L   24061.81361782 -.00000070  00000-0  00000+0 0  9994,2 43453   1.7462 233.0488 0664837 213.2372 141.7052  1.07400863 23041,1969-013L,43453,40277.576,1340.771,36577.243,31221.639,0
GENERATED VIA SPACETRACK.ORG API,18 SPCS,43453,TITAN 3C TRANSTAGE DEB,DEBRIS,U,69013L,2024-03-01 19:31:36,249600,1.07400727,0.0664632,1.7463,233.0564,213.2813,141.6575,0,999,2304,0,-0.00000069,0,4204354,0 TITAN 3C TRANSTAGE DEB,1 43453U 69013L   24061.81361400 -.00000069  00000-0  00000-0 0  9990,2 43453   1.7463 233.0564 0664632 213.2813 141.6575  1.07400727 23048,1969-013L,43453,40277.610,1340.773,36576.454,31222.496,0
GENERATED VIA SPACETRACK.ORG API,18 SPCS,44307,YAMAL 601,PAYLOAD,U,19031A,2024-03-01 19:26:42,786816,1.00273536,0.000249,0.0108,176.6749,174.9665,149.1155,0,999,1752,0,0.0000013,0,4203428,0 YAMAL 601,1 44307U 19031A   24061.81021744  .00000130  00000-0  00000-0 0  9996,2 44307   0.0108 176.6749 0002490 174.9665 149.1155  1.00273536 17520,2019-031A,44307,42164.241,1436.072,35796.605,35775.607,0
GENERATED VIA SPACETRACK.ORG API,18 SPCS,44479,AMOS 17,PAYLOAD,U,19050A,2024-03-01 19:19:27,276384,1.00274491,0.0001794,0.0163,122.7333,237.3533,106.8498,0,999,1679,0,0.0000012,0,4203428,0 AMOS 17,1 44479U 19050A   24061.80517681  .00000120  00000-0  00000-0 0  9995,2 44479   0.0163 122.7333 0001794 237.3533 106.8498  1.00274491 16795,2019-050A,44479,42163.973,1436.058,35793.403,35778.274,0
GENERATED VIA SPACETRACK.ORG API,18 SPCS,43162,SBIRS GEO 3 (USA 282),PAYLOAD,U,18009A,2024-03-01 17:57:28,139904,1.00272726,0.0001892,2.4936,331.7507,16.3339,281.8916,0,999,2244,0,0.00000141,0,4203428,0 SBIRS GEO 3 (USA 282),1 43162U 18009A   24061.74824236  .00000141  00000-0  00000-0 0  9999,2 43162   2.4936 331.7507 0001892  16.3339 281.8916  1.00272726 22447,2018-009A,43162,42164.468,1436.083,35794.311,35778.356,0
GENERATED VIA SPACETRACK.ORG API,18 SPCS,41469,IRNSS 1G,PAYLOAD,U,16027A,2024-03-01 17:37:10,101216,1.00271294,0.0004966,3.2016,123.2663,289.7957,140.7566,0,999,2878,0,-0.00000325,0,4203428,0 IRNSS 1G,1 41469U 16027A   24061.73414469 -.00000325  00000-0  00000-0 0  9992,2 41469   3.2016 123.2663 0004966 289.7957 140.7566  1.00271294 28783,2016-027A,41469,42164.870,1436.104,35807.674,35765.796,0
GENERATED VIA SPACETRACK.ORG API,18 SPCS,20253,FLTSATCOM 8 (USA 46),PAYLOAD,U,89077A,2024-03-01 17:36:02,432736,1.00275841,0.0006751,12.6674,356.2155,349.1208,204.5277,0,999,25222,0,-0.00000354,0,4203428,0 FLTSATCOM 8 (USA 46),1 20253U 89077A   24061.73336149 -.00000354  00000-0  00000-0 0  9995,2 20253  12.6674 356.2155 0006751 349.1208 204.5277  1.00275841252221,1989-077A,20253,42163.595,1436.039,35813.925,35756.995,0
GENERATED VIA SPACETRACK.ORG API,18 SPCS,25001,TITAN 3C TRANSTAGE DEB,DEBRIS,U,68081H,2024-03-01 17:21:22,738176,1.01697293,0.00684,1.0341,346.4894,39.3678,107.8954,0,999,10980,0,-0.00000247,0,4203428,0 TITAN 3C TRANSTAGE DEB,1 25001U 68081H   24061.72317984 -.00000247  00000-0  00000-0 0  9999,2 25001   1.0341 346.4894 0068400  39.3678 107.8954  1.01697293109801,1968-081H,25001,41769.786,1415.967,35677.356,35105.945,0
GENERATED VIA SPACETRACK.ORG API,18 SPCS,28945,SPAINSAT,PAYLOAD,U,06007A,2024-03-01 15:20:14,310528,1.00273927,0.000327,0.0553,256.3152,61.082,42.5633,0,999,6581,0,-0.00000205,0,4203428,0 SPAINSAT,1 28945U 06007A   24061.63905452 -.00000205  00000-0  00000-0 0  9996,2 28945   0.0553 256.3152 0003270  61.0820  42.5633  1.00273927 65810,2006-007A,28945,42164.131,1436.066,35799.784,35772.209,0
GENERATED VIA SPACETRACK.ORG API,18 SPCS,28945,SPAINSAT,PAYLOAD,U,06007A,2024-03-01 15:20:14,376192,1.00273868,0.0003244,0.0553,255.7731,62.9966,41.1917,0,999,6582,0,-0.00000205,0,4204354,0 SPAINSAT,1 28945U 06007A   24061.63905528 -.00000205  00000-0  00000-0 0  9990,2 28945   0.0553 255.7731 0003244  62.9966  41.1917  1.00273868 65823,2006-007A,28945,42164.148,1436.067,35799.691,35772.335,0
GENERATED VIA SPACETRACK.ORG API,18 SPCS,42915,TDRS 13,PAYLOAD,U,17047A,2024-03-01 15:13:33,612384,1.00272316,0.0013885,3.732,342.3904,106.1372,288.2544,0,999,2398,0,-0.00000087,0,4203067,0 TDRS 13,1 42915U 17047A   24061.63441681 -.00000087  00000-0  00000+0 0  9991,2 42915   3.7320 342.3904 0013885 106.1372 288.2544  1.00272316 23985,2017-047A,42915,42164.583,1436.089,35844.994,35727.903,0
GENERATED VIA SPACETRACK.ORG API,18 SPCS,42915,TDRS 13,PAYLOAD,U,17047A,2024-03-01 15:13:33,612384,1.00272316,0.0013885,3.732,342.3904,106.1372,288.2544,0,999,2395,0,-0.00000087,0,4203428,0 TDRS 13,1 42915U 17047A   24061.63441681 -.00000087  00000-0  00000-0 0  9992,2 42915   3.7320 342.3904 0013885 106.1372 288.2544  1.00272316 23952,2017-047A,42915,42164.583,1436.089,35844.994,35727.903,0
